H1 CPF 01  gfz 2021 03 30 00  5891 tandemx   
H2 1003001  6202 36605    2021 03 30 00 59 42 2021 04 04 00 00 42   120 1 1  0 0 0
H9
10 0 59303  53262.000000  0    4222049.138   4038954.045   3640108.023
10 0 59303  53382.000000  0    3967451.000   3538688.048   4371229.971
10 0 59303  53502.000000  0    3634257.141   2981712.682   5025404.277
10 0 59303  53622.000000  0    3227418.568   2379113.844   5591146.344
10 0 59303  53742.000000  0    2753369.430   1742668.893   6058538.606
10 0 59303  53862.000000  0    2219921.486   1084612.990   6419398.922
10 0 59303  53982.000000  0    1636131.418    417401.056   6667417.445
10 0 59303  54102.000000  0    1012144.123   -246527.323   6798260.934
10 0 59303  54222.000000  0     359014.896   -894979.228   6809645.367
10 0 59303  54342.000000  0    -311487.077  -1516232.781   6701373.123
10 0 59303  54462.000000  0    -987090.916  -2099248.823   6475335.623
10 0 59303  54582.000000  0   -1655247.879  -2633867.124   6135480.757
10 0 59303  54702.000000  0   -2303361.881  -3110983.437   5687748.148
10 0 59303  54822.000000  0   -2919026.994  -3522707.594   5139973.571
10 0 59303  54942.000000  0   -3490269.220  -3862498.853   4501758.366
10 0 59303  55062.000000  0   -4005783.817  -4125273.747   3784304.613
10 0 59303  55182.000000  0   -4455162.822  -4307485.526   3000221.068
10 0 59303  55302.000000  0   -4829109.465  -4407173.823   2163302.885
10 0 59303  55422.000000  0   -5119635.223  -4423982.999   1288286.332
10 0 59303  55542.000000  0   -5320232.703  -4359146.748    390583.567
10 0 59303  55662.000000  0   -5426020.527  -4215440.271   -513996.339
10 0 59303  55782.000000  0   -5433856.288  -3997101.021  -1409534.949
10 0 59303  55902.000000  0   -5342413.770  -3709719.095  -2280294.601
10 0 59303  56022.000000  0   -5152221.901  -3360100.403  -3111002.156
10 0 59303  56142.000000  0   -4865666.641  -2956108.132  -3887120.568
10 0 59303  56262.000000  0   -4486956.661  -2506486.130  -4595103.611
10 0 59303  56382.000000  0   -4022053.382  -2020668.846  -5222629.280
10 0 59303  56502.000000  0   -3478568.043  -1508582.695  -5758807.577
10 0 59303  56622.000000  0   -2865629.029   -980442.959  -6194359.944
10 0 59303  56742.000000  0   -2193722.596   -446551.102  -6521768.685
10 0 59303  56862.000000  0   -1474509.567     82903.346  -6735394.994
10 0 59303  56982.000000  0    -720623.210    598032.436  -6831564.395
10 0 59303  57102.000000  0      54548.327   1089429.358  -6808623.061
10 0 59303  57222.000000  0     837093.416   1548335.407  -6666962.789
10 0 59303  57342.000000  0    1612820.228   1966792.059  -6409017.621
10 0 59303  57462.000000  0    2367509.099   2337777.450  -6039226.549
10 0 59303  57582.000000  0    3087169.178   2655323.715  -5563965.071
10 0 59303  57702.000000  0    3758294.490   2914613.439  -4991445.042
10 0 59303  57822.000000  0    4368118.138   3112055.107  -4331585.529
10 0 59303  57942.000000  0    4904859.719   3245335.152  -3595851.482
10 0 59303  58062.000000  0    5357958.964   3313444.393  -2797062.395
10 0 59303  58182.000000  0    5718291.030   3316679.726  -1949175.215
10 0 59303  58302.000000  0    5978359.437   3256619.129  -1067041.727
10 0 59303  58422.000000  0    6132459.028   3136069.412   -166146.236
10 0 59303  58542.000000  0    6176805.958   2958988.424    737671.538
10 0 59303  58662.000000  0    6109630.008   2730382.325   1628502.373
10 0 59303  58782.000000  0    5931226.426   2456183.248   2490655.827
10 0 59303  58902.000000  0    5643966.816   2143107.753   3308945.912
10 0 59303  59022.000000  0    5252266.535   1798499.908   4068966.371
10 0 59303  59142.000000  0    4762510.692   1430163.963   4757349.303
10 0 59303  59262.000000  0    4182942.207   1046190.758   5362000.419
10 0 59303  59382.000000  0    3523515.415    654781.970   5872311.937
10 0 59303  59502.000000  0    2795714.439    264076.231   6279344.689
10 0 59303  59622.000000  0    2012346.677   -118017.586   6575977.249
10 0 59303  59742.000000  0    1187314.021   -483978.343   6757025.256
10 0 59303  59862.000000  0     335363.031   -826819.640   6819328.036
10 0 59303  59982.000000  0    -528180.171  -1140222.275   6761799.332
10 0 59303  60102.000000  0   -1387685.142  -1418650.523   6585444.362
10 0 59303  60222.000000  0   -2227498.836  -1657449.948   6293342.051
10 0 59303  60342.000000  0   -3032228.456  -1852924.468   5890594.772
10 0 59303  60462.000000  0   -3787025.114  -2002393.997   5384247.637
10 0 59303  60582.000000  0   -4477863.330  -2104231.482   4783171.051
10 0 59303  60702.000000  0   -5091807.840  -2157877.185   4097909.850
10 0 59303  60822.000000  0   -5617262.943  -2163829.283   3340501.202
10 0 59303  60942.000000  0   -6044199.311  -2123611.524   2524265.314
10 0 59303  61062.000000  0   -6364354.779  -2039719.873   1663571.484
10 0 59303  61182.000000  0   -6571403.819  -1915548.057    773579.980
10 0 59303  61302.000000  0   -6661086.900  -1755292.812   -130032.758
10 0 59303  61422.000000  0   -6631299.973  -1563841.773  -1031358.840
10 0 59303  61542.000000  0   -6482139.446  -1346647.181  -1914548.485
10 0 59303  61662.000000  0   -6215902.509  -1109589.097  -2764096.418
10 0 59303  61782.000000  0   -5837043.747   -858831.883  -3565119.497
10 0 59303  61902.000000  0   -5352089.619   -600676.602  -4303619.975
10 0 59303  62022.000000  0   -4769513.570   -341413.232  -4966728.859
10 0 59303  62142.000000  0   -4099575.373    -87177.123  -5542925.062
10 0 59303  62262.000000  0   -3354128.859    156187.252  -6022227.189
10 0 59303  62382.000000  0   -2546403.753    383252.704  -6396354.449
10 0 59303  62502.000000  0   -1690767.493    589122.834  -6658857.639
10 0 59303  62622.000000  0    -802469.392    769530.974  -6805219.790
10 0 59303  62742.000000  0     102627.367    920924.366  -6832924.342
10 0 59303  62862.000000  0    1008321.173   1040530.819  -6741493.174
10 0 59303  62982.000000  0    1898354.889   1126407.735  -6532496.787
10 0 59303  63102.000000  0    2756702.093   1177473.648  -6209530.476
10 0 59303  63222.000000  0    3567851.083   1193520.787  -5778158.427
10 0 59303  63342.000000  0    4317081.661   1175208.356  -5245826.824
10 0 59303  63462.000000  0    4990733.300   1124037.062  -4621747.611
10 0 59303  63582.000000  0    5576459.822   1042305.355  -3916750.085
10 0 59303  63702.000000  0    6063463.751    933047.396  -3143102.405
10 0 59303  63822.000000  0    6442706.081    799953.869  -2314305.734
10 0 59303  63942.000000  0    6707087.323    647277.625  -1444862.474
10 0 59303  64062.000000  0    6851592.947    479725.251   -550021.222
10 0 59303  64182.000000  0    6873398.019    302337.568    354494.878
10 0 59303  64302.000000  0    6771929.972    120362.643   1252770.479
10 0 59303  64422.000000  0    6548886.878    -60877.305   2128986.666
10 0 59303  64542.000000  0    6208208.942   -236120.037   2967709.338
10 0 59303  64662.000000  0    5756003.969   -400296.086   3754169.175
10 0 59303  64782.000000  0    5200429.882   -548655.283   4474526.567
10 0 59303  64902.000000  0    4551539.542   -676885.221   5116118.746
10 0 59303  65022.000000  0    3821087.387   -781218.743   5667682.758
10 0 59303  65142.000000  0    3022306.602   -858526.378   6119549.353
10 0 59303  65262.000000  0    2169661.721   -906393.724   6463807.616
10 0 59303  65382.000000  0    1278581.841   -923181.711   6694438.002
10 0 59303  65502.000000  0     365177.143   -908068.803   6807412.728
10 0 59303  65622.000000  0    -554054.124   -861073.789   6800760.529
10 0 59303  65742.000000  0   -1462522.846   -783059.729   6674597.837
10 0 59303  65862.000000  0   -2343847.023   -675718.152   6431126.495
10 0 59303  65982.000000  0   -3182145.715   -541534.003   6074598.072
10 0 59303  66102.000000  0   -3962326.349   -383731.796   5611245.594
10 0 59303  66222.000000  0   -4670360.961   -206204.321   5049181.183
10 0 59303  66342.000000  0   -5293545.264    -13424.724   4398259.449
10 0 59303  66462.000000  0   -5820734.980    189656.181   3669908.782
10 0 59303  66582.000000  0   -6242554.017    397725.701   2876933.150
10 0 59303  66702.000000  0   -6551571.508    605235.756   2033287.724
10 0 59303  66822.000000  0   -6742442.170    806536.960   1153830.168
10 0 59303  66942.000000  0   -6812006.384    996016.510    254052.893
10 0 59303  67062.000000  0   -6759346.162   1168237.089   -650198.604
10 0 59303  67182.000000  0   -6585794.657   1318072.720  -1543014.192
10 0 59303  67302.000000  0   -6294900.790   1440837.706  -2408706.483
10 0 59303  67422.000000  0   -5892351.498   1532407.406  -3232093.667
10 0 59303  67542.000000  0   -5385849.380   1589325.366  -3998771.368
10 0 59303  67662.000000  0   -4784952.265   1608894.629  -4695364.437
10 0 59303  67782.000000  0   -4100880.380   1589252.235  -5309756.072
10 0 59303  67902.000000  0   -3346296.144   1529424.988  -5831290.266
10 0 59303  68022.000000  0   -2535062.860   1429365.696  -6250946.430
10 0 59303  68142.000000  0   -1681985.953   1289969.360  -6561484.655
10 0 59303  68262.000000  0    -802541.472   1113069.965  -6757558.481
10 0 59303  68382.000000  0      87400.792    901417.034  -6835796.058
10 0 59303  68502.000000  0     971855.984    658633.902  -6794851.594
10 0 59303  68622.000000  0    1835004.579    389156.932  -6635428.515
10 0 59303  68742.000000  0    2661469.619     98156.425  -6360268.139
10 0 59303  68862.000000  0    3436585.472   -208558.758  -5974107.951
10 0 59303  68982.000000  0    4146655.288   -524652.714  -5483607.443
10 0 59303  69102.000000  0    4779192.511   -843387.750  -4897244.643
10 0 59303  69222.000000  0    5323146.023  -1157762.477  -4225181.953
10 0 59303  69342.000000  0    5769101.457  -1460659.551  -3479100.114
10 0 59303  69462.000000  0    6109454.712  -1745000.429  -2672003.444
10 0 59303  69582.000000  0    6338553.625  -2003904.144  -1817998.215
10 0 59303  69702.000000  0    6452803.400  -2230846.096   -932047.229
99
